1 43013U 17073A   26034.57248188  .00000100  00000+0  68309-4 0  9997
2 43013  98.7656 335.3070 0000531  15.5131 344.6062 14.19526555425515
